COSMOS 2477 (745)       
1 37868U 11064B   25333.88252424  .00000000  00000+0  00000+0 0  9993
2 37868  65.1619  79.6839 0020945 233.6607 211.3950  2.13102712109517
COSMOS 2475 (743)       
1 37869U 11064C   25331.49510793  .00000016  00000+0  00000+0 0  9992
2 37869  65.1676  79.7846 0025858 247.9398 121.5900  2.13101456109479
COSMOS 2485 (747)       
1 39155U 13019A   25328.31313637  .00000012  00000+0  00000+0 0  9995
2 39155  65.3036  80.4871 0024274 228.0776 131.7167  2.13103115 97916
COSMOS 2492 (754)       
1 39620U 14012A   25330.14878288 -.00000016  00000+0  00000+0 0  9993
2 39620  65.4170 320.8337 0014096 310.0598  49.8317  2.13103222 90914
COSMOS 2500 (755)       
1 40001U 14032A   25334.07523372 -.00000019  00000+0  00000+0 0  9990
2 40001  65.3506 320.4637 0008387 218.9458 141.0093  2.13105939 89211
COSMOS 2501 (702K)      
1 40315U 14075A   25333.86555699  .00000091  00000+0  00000+0 0  9997
2 40315  63.6137 197.2711 0020177 204.8562 155.1342  2.13101314 85609
COSMOS 2514 (751)       
1 41330U 16008A   25333.84951587 -.00000019  00000+0  00000+0 0  9998
2 41330  65.1411 319.8458 0012577 219.7884 140.1346  2.13102651 76373
COSMOS 2522 (752)       
1 42939U 17055A   25331.34164618  .00000066  00000+0  00000+0 0  9992
2 42939  64.0756 198.7536 0006645 227.0793 132.9509  2.13101917 63673
